H1 CPF 01  gfz 2021 04 20 12  6102 tandemx   
H2 1003001  6202 36605    2021 04 20 12 59 42 2021 04 25 00 00 42   120 1 1  0 0 0
H9
10 0 59326  56142.000000  0     430305.375   1411932.322  -6735508.425
10 0 59326  56262.000000  0    1175450.726   1904302.282  -6522012.943
10 0 59326  56382.000000  0    1908448.551   2350747.944  -6194722.757
10 0 59326  56502.000000  0    2615708.856   2743839.209  -5759276.959
10 0 59326  56622.000000  0    3283943.348   3077287.805  -5223193.161
10 0 59326  56742.000000  0    3900413.174   3346049.711  -4595749.723
10 0 59326  56862.000000  0    4453174.411   3546405.438  -3887836.855
10 0 59326  56982.000000  0    4931314.810   3676014.520  -3111776.816
10 0 59326  57102.000000  0    5325175.192   3733943.040  -2281115.621
10 0 59326  57222.000000  0    5626551.723   3720664.223  -1410390.065
10 0 59326  57342.000000  0    5828873.634   3638029.748   -514872.271
10 0 59326  57462.000000  0    5927350.919   3489212.722    389701.829
10 0 59326  57582.000000  0    5919088.782   3278623.392   1287415.703
10 0 59326  57702.000000  0    5803163.826   3011798.889   2162460.948
10 0 59326  57822.000000  0    5580660.456   2695270.884   2999424.208
10 0 59326  57942.000000  0    5254666.793   2336413.619   3783567.502
10 0 59326  58062.000000  0    4830228.475   1943275.930   4501093.983
10 0 59326  58182.000000  0    4314263.741   1524402.620   5139391.963
10 0 59326  58302.000000  0    3715445.088   1088649.831   5687257.253
10 0 59326  58422.000000  0    3044043.148    644997.894   6135088.314
10 0 59326  58542.000000  0    2311742.212    202366.668   6475047.041
10 0 59326  58662.000000  0    1531433.059   -230561.841   6701189.544
10 0 59326  58782.000000  0     716983.327   -645512.718   6809566.076
10 0 59326  58902.000000  0    -117011.531  -1034775.813   6798285.694
10 0 59326  59022.000000  0    -955489.909  -1391348.306   6667546.343
10 0 59326  59142.000000  0   -1783195.341  -1709060.885   6419630.552
10 0 59326  59262.000000  0   -2584952.130  -1982683.942   6058867.008
10 0 59326  59382.000000  0   -3345942.415  -2208013.655   5591562.013
10 0 59326  59502.000000  0   -4051984.634  -2381938.541   5025896.960
10 0 59326  59622.000000  0   -4689803.195  -2502482.897   4371789.520
10 0 59326  59742.000000  0   -5247284.481  -2568825.827   3640723.357
10 0 59326  59862.000000  0   -5713713.924  -2581295.450   2845549.213
10 0 59326  59982.000000  0   -6079990.302  -2541339.464   2000260.172
10 0 59326  60102.000000  0   -6338812.551  -2451473.111   1119742.702
10 0 59326  60222.000000  0   -6484831.266  -2315202.980    219506.922
10 0 59326  60342.000000  0   -6514761.422  -2136929.559   -684594.106
10 0 59326  60462.000000  0   -6427454.549  -1921831.139  -1576653.421
10 0 59326  60582.000000  0   -6223925.830  -1675732.313  -2440998.915
10 0 59326  60702.000000  0   -5907337.963  -1404960.689  -3262474.947
10 0 59326  60822.000000  0   -5482942.734  -1116195.547  -4026711.534
10 0 59326  60942.000000  0   -4957982.532   -816312.270  -4720375.821
10 0 59326  61062.000000  0   -4341554.610   -512226.042  -5331401.308
10 0 59326  61182.000000  0   -3644441.344   -210739.232  -5849190.615
10 0 59326  61302.000000  0   -2878911.880     81604.594  -6264788.643
10 0 59326  61422.000000  0   -2058500.710    358656.640  -6571025.164
10 0 59326  61542.000000  0   -1197766.505    614785.909  -6762627.292
10 0 59326  61662.000000  0    -312035.796    844988.591  -6836300.249
10 0 59326  61782.000000  0     582863.959   1044982.437  -6790776.537
10 0 59326  61902.000000  0    1470878.988   1211283.189  -6626837.010
10 0 59326  62022.000000  0    2336011.610   1341264.477  -6347300.619
10 0 59326  62142.000000  0    3162603.160   1433199.149  -5956980.890
10 0 59326  62262.000000  0    3935613.476   1486280.880  -5462610.358
10 0 59326  62382.000000  0    4640892.990   1500626.427  -4872735.905
10 0 59326  62502.000000  0    5265445.671   1477258.672  -4197582.931
10 0 59326  62622.000000  0    5797675.233   1418069.927  -3448887.811
10 0 59326  62742.000000  0    6227609.551   1325765.953  -2639702.381
10 0 59326  62862.000000  0    6547099.706   1203791.882  -1784172.097
10 0 59326  62982.000000  0    6749987.148   1056241.423   -897289.303
10 0 59326  63102.000000  0    6832233.180    887750.510      5372.754
10 0 59326  63222.000000  0    6792006.489    703379.048    907939.360
10 0 59326  63342.000000  0    6629728.551    508483.319   1794520.378
10 0 59326  63462.000000  0    6348073.893    308581.008   2649499.961
10 0 59326  63582.000000  0    5951922.773    109213.861   3457820.195
10 0 59326  63702.000000  0    5448270.413    -84189.529   4205253.246
10 0 59326  63822.000000  0    4846094.578   -266445.146   4878654.795
10 0 59326  63942.000000  0    4156186.454   -432738.790   5466197.596
10 0 59326  64062.000000  0    3390945.628   -578740.780   5957576.786
10 0 59326  64182.000000  0    2564148.896   -700706.617   6344185.871
10 0 59326  64302.000000  0    1690696.105   -795563.347   6619261.707
10 0 59326  64422.000000  0     786337.533   -860979.455   6777998.154
10 0 59326  64542.000000  0    -132613.393   -895417.007   6817624.576
10 0 59326  64662.000000  0   -1049574.430   -898165.102   6737449.891
10 0 59326  64782.000000  0   -1947992.514   -869354.354   6538873.254
10 0 59326  64902.000000  0   -2811640.950   -809951.471   6225360.784
10 0 59326  65022.000000  0   -3624911.908   -721734.507   5802390.119
10 0 59326  65142.000000  0   -4373101.728   -607249.424   5277361.559
10 0 59326  65262.000000  0   -5042682.972   -469748.835   4659474.808
10 0 59326  65382.000000  0   -5621556.750   -313113.442   3959572.228
10 0 59326  65502.000000  0   -6099280.045   -141757.906   3189951.362
10 0 59326  65622.000000  0   -6467263.495     39477.036   2364150.758
10 0 59326  65742.000000  0   -6718936.536    225444.348   1496710.371
10 0 59326  65862.000000  0   -6849873.377    410818.411    602910.261
10 0 59326  65982.000000  0   -6857876.412    590227.910   -301506.397
10 0 59326  66102.000000  0   -6743014.185    758390.927  -1200620.000
10 0 59326  66222.000000  0   -6507612.639    910248.128  -2078623.299
10 0 59326  66342.000000  0   -6156203.245   1041090.753  -2920105.551
10 0 59326  66462.000000  0   -5695427.478   1146681.184  -3710330.412
10 0 59326  66582.000000  0   -5133897.410   1223361.450  -4435496.033
10 0 59326  66702.000000  0   -4482021.725   1268147.943  -5082973.379
10 0 59326  66822.000000  0   -3751800.572   1278810.205  -5641519.640
10 0 59326  66942.000000  0   -2956595.521   1253932.326  -6101463.771
10 0 59326  67062.000000  0   -2110879.368   1192955.303  -6454862.903
10 0 59326  67182.000000  0   -1229970.311   1096201.647  -6695628.178
10 0 59326  67302.000000  0    -329755.773    964880.586  -6819617.888
10 0 59326  67422.000000  0     573587.883    801074.299  -6824699.866
10 0 59326  67542.000000  0    1463877.819    607705.726  -6710786.016
10 0 59326  67662.000000  0    2325209.189    388487.463  -6479834.757
10 0 59326  67782.000000  0    3142233.169    147853.196  -6135820.663
10 0 59326  67902.000000  0    3900426.977   -109127.560  -5684672.901
10 0 59326  68022.000000  0    4586349.838   -376851.035  -5134182.580
10 0 59326  68142.000000  0    5187884.357   -649294.469  -4493880.941
10 0 59326  68262.000000  0    5694458.118   -920144.231  -3774884.975
10 0 59326  68382.000000  0    6097239.021  -1182933.873  -2989713.508
10 0 59326  68502.000000  0    6389300.988  -1431189.805  -2152075.766
10 0 59326  68622.000000  0    6565755.796  -1658581.081  -1276634.794
10 0 59326  68742.000000  0    6623846.218  -1859069.414   -378749.616
10 0 59326  68862.000000  0    6562998.109  -2027055.820    525798.356
10 0 59326  68982.000000  0    6384829.206  -2157520.344   1421090.287
10 0 59326  69102.000000  0    6093112.969  -2246150.465   2291358.958
10 0 59326  69222.000000  0    5693699.034  -2289455.737   3121275.596
10 0 59326  69342.000000  0    5194391.498  -2284864.191   3896228.000
10 0 59326  69462.000000  0    4604788.534  -2230799.237   4602582.168
10 0 59326  69582.000000  0    3936090.685  -2126734.685   5227923.787
10 0 59326  69702.000000  0    3200879.781  -1973227.953   5761277.511
10 0 59326  69822.000000  0    2412872.734  -1771929.495   6193296.092
10 0 59326  69942.000000  0    1586659.566  -1525569.064   6516418.445
10 0 59326  70062.000000  0     737428.930  -1237919.724   6724996.289
10 0 59326  70182.000000  0    -119313.728   -913739.326   6815387.186
10 0 59326  70302.000000  0    -968029.374   -558690.871   6786013.119
10 0 59326  70422.000000  0   -1793425.883   -179243.721   6637385.902
10 0 59326  70542.000000  0   -2580732.309    217443.918   6372098.880
10 0 59326  70662.000000  0   -3315962.897    623659.163   5994785.281
10 0 59326  70782.000000  0   -3986167.517   1031282.924   5512043.002
10 0 59326  70902.000000  0   -4579664.729   1431950.343   4932325.519
10 0 59326  71022.000000  0   -5086252.120   1817221.220   4265799.404
10 0 59326  71142.000000  0   -5497389.811   2178756.632   3524169.874
10 0 59326  71262.000000  0   -5806352.263   2508497.637   2720477.220
10 0 59326  71382.000000  0   -6008346.262   2798842.439   1868867.606
10 0 59326  71502.000000  0   -6100592.249   3042818.047    984340.820
10 0 59326  71622.000000  0   -6082364.732   3234241.643     82478.691
10 0 59326  71742.000000  0   -5954990.373   3367867.024   -820837.591
10 0 59326  71862.000000  0   -5721805.297   3439512.360  -1709715.907
10 0 59326  71982.000000  0   -5388072.125   3446166.845  -2568542.252
10 0 59326  72102.000000  0   -4960856.911   3386072.243  -3382262.110
10 0 59326  72222.000000  0   -4448872.271   3258778.296  -4136647.834
10 0 59326  72342.000000  0   -3862290.501   3065170.744  -4818546.181
10 0 59326  72462.000000  0   -3212532.991   2807472.248  -5416102.628
10 0 59326  72582.000000  0   -2512041.765   2489216.934  -5918958.141
99
